[{"OBJECT_NAME":"STARLINK-34682","OBJECT_ID":"2025-152N","EPOCH":"2026-03-09T13:41:51.387360","MEAN_MOTION":15.0571118,"ECCENTRICITY":0.0001428,"INCLINATION":97.6011,"RA_OF_ASC_NODE":285.4583,"ARG_OF_PERICENTER":105.6053,"MEAN_ANOMALY":254.5332,"EPHEMERIS_TYPE":0,"CLASSIFICATION_TYPE":"U","NORAD_CAT_ID":64854,"ELEMENT_SET_NO":999,"REV_AT_EPOCH":3540,"BSTAR":0.0016039,"MEAN_MOTION_DOT":0.00023196,"MEAN_MOTION_DDOT":0},{"OBJECT_NAME":"ATLAS CENTAUR R\/B","OBJECT_ID":"1981-050B","EPOCH":"2026-03-09T21:41:53.909088","MEAN_MOTION":8.78968384,"ECCENTRICITY":0.32572443,"INCLINATION":23.9372,"RA_OF_ASC_NODE":11.6522,"ARG_OF_PERICENTER":123.7324,"MEAN_ANOMALY":271.6876,"EPHEMERIS_TYPE":0,"CLASSIFICATION_TYPE":"U","NORAD_CAT_ID":12497,"ELEMENT_SET_NO":999,"REV_AT_EPOCH":16823,"BSTAR":0.0011109574,"MEAN_MOTION_DOT":0.00013474,"MEAN_MOTION_DDOT":0}]
